{"type": "FeatureCollection", "features": [ {"type": "Feature", "properties": {"norad_id": 39620, "name": "COSMOS 2492 (754)", "group": "gnss", "lat": -64.44198973724177, "lon": -112.79500778734524, "alt_km": 19106.47786822442, "timestamp": "2025-12-08T05:48:09.277903+00:00", "meta": {"OBJECT_NAME": "COSMOS 2492 (754)", "OBJECT_ID": "2014-012A", "EPOCH": "2025-12-06T22:36:05.505696", "MEAN_MOTION": 2.13103091, "ECCENTRICITY": 0.00141965, "INCLINATION": 65.4111, "RA_OF_ASC_NODE": 320.4673, "ARG_OF_PERICENTER": 311.6327, "MEAN_ANOMALY": 48.2397, "EPHEMERIS_TYPE": 0, "CLASSIFICATION_TYPE": "U", "NORAD_CAT_ID": 39620, "ELEMENT_SET_NO": 999, "REV_AT_EPOCH": 9114, "BSTAR": 0, "MEAN_MOTION_DOT": -4.9e-07, "MEAN_MOTION_DDOT": 0}, "tle": {"line1": "1 39620U 14012A   25340.94173039 -.00000049  00000+0  00000+0 0  9990", "line2": "2 39620  65.4111 320.4673 0014196 311.6327  48.2397  2.13103091 91147"}}, "geometry": {"type": "Point", "coordinates": [-112.79500778734524, -64.44198973724177]}}, {"type": "Feature", "properties": {"norad_id": 39635, "name": "IRNSS-1B", "group": "gnss", "lat": -11.443121961251995, "lon": -137.84159694651194, "alt_km": 35852.64608402886, "timestamp": "2025-12-08T05:48:09.277914+00:00", "meta": {"OBJECT_NAME": "IRNSS-1B", "OBJECT_ID": "2014-017A", "EPOCH": "2025-12-07T19:02:08.350080", "MEAN_MOTION": 1.00276938, "ECCENTRICITY": 0.00176548, "INCLINATION": 28.8332, "RA_OF_ASC_NODE": 243.6763, "ARG_OF_PERICENTER": 183.0277, "MEAN_ANOMALY": 350.7455, "EPHEMERIS_TYPE": 0, "CLASSIFICATION_TYPE": "U", "NORAD_CAT_ID": 39635, "ELEMENT_SET_NO": 999, "REV_AT_EPOCH": 4287, "BSTAR": 0, "MEAN_MOTION_DOT": 1.18e-06, "MEAN_MOTION_DDOT": 0}, "tle": {"line1": "1 39635U 14017A   25341.79315220  .00000118  00000+0  00000+0 0  9991", "line2": "2 39635  28.8332 243.6763 0017654 183.0277 350.7455  1.00276938 42872"}}, "geometry": {"type": "Point", "coordinates": [-137.84159694651194, -11.443121961251995]}}, {"type": "Feature", "properties": {"norad_id": 39727, "name": "LUCH 5V (SDCM/PRN 141)", "group": "gnss", "lat": -0.6279371847328071, "lon": -100.97228446991869, "alt_km": 35767.83444365943, "timestamp": "2025-12-08T05:48:09.277928+00:00", "meta": {"OBJECT_NAME": "LUCH 5V (SDCM/PRN 141)", "OBJECT_ID": "2014-023A", "EPOCH": "2025-12-07T19:13:14.786112", "MEAN_MOTION": 1.00270486, "ECCENTRICITY": 0.00045992, "INCLINATION": 4.6568, "RA_OF_ASC_NODE": 71.5807, "ARG_OF_PERICENTER": 203.2773, "MEAN_ANOMALY": 185.0478, "EPHEMERIS_TYPE": 0, "CLASSIFICATION_TYPE": "U", "NORAD_CAT_ID": 39727, "ELEMENT_SET_NO": 999, "REV_AT_EPOCH": 4244, "BSTAR": 0, "MEAN_MOTION_DOT": -2.67e-06, "MEAN_MOTION_DDOT": 0}, "tle": {"line1": "1 39727U 14023A   25341.80086558 -.00000267  00000+0  00000+0 0  9997", "line2": "2 39727   4.6568  71.5807 0004599 203.2773 185.0478  1.00270486 42443"}}, "geometry": {"type": "Point", "coordinates": [-100.97228446991869, -0.6279371847328071]}}, {"type": "Feature", "properties": {"norad_id": 39741, "name": "GPS BIIF-6  (PRN 06)", "group": "gnss", "lat": 8.86457617100652, "lon": 153.03550434463006, "alt_km": 20270.27952151689, "timestamp": "2025-12-08T05:48:09.277939+00:00", "meta": {"OBJECT_NAME": "GPS BIIF-6  (PRN 06)", "OBJECT_ID": "2014-026A", "EPOCH": "2025-12-07T12:11:28.594176", "MEAN_MOTION": 2.00561597, "ECCENTRICITY": 0.00390407, "INCLINATION": 56.5857, "RA_OF_ASC_NODE": 338.9799, "ARG_OF_PERICENTER": 318.3816, "MEAN_ANOMALY": 41.333, "EPHEMERIS_TYPE": 0, "CLASSIFICATION_TYPE": "U", "NORAD_CAT_ID": 39741, "ELEMENT_SET_NO": 999, "REV_AT_EPOCH": 8469, "BSTAR": 0, "MEAN_MOTION_DOT": -8.2e-07, "MEAN_MOTION_DDOT": 0}, "tle": {"line1": "1 39741U 14026A   25341.50796984 -.00000082  00000+0  00000+0 0  9999", "line2": "2 39741  56.5857 338.9799 0039040 318.3816  41.3330  2.00561597 84692"}}, "geometry": {"type": "Point", "coordinates": [153.03550434463006, 8.86457617100652]}}, {"type": "Feature", "properties": {"norad_id": 40001, "name": "COSMOS 2500 (755)", "group": "gnss", "lat": 31.329909531372465, "lon": 123.9420583889101, "alt_km": 19120.35230581252, "timestamp": "2025-12-08T05:48:09.277950+00:00", "meta": {"OBJECT_NAME": "COSMOS 2500 (755)", "OBJECT_ID": "2014-032A", "EPOCH": "2025-12-07T02:44:10.438080", "MEAN_MOTION": 2.13105901, "ECCENTRICITY": 0.00081625, "INCLINATION": 65.3466, "RA_OF_ASC_NODE": 320.2241, "ARG_OF_PERICENTER": 219.2555, "MEAN_ANOMALY": 140.6795, "EPHEMERIS_TYPE": 0, "CLASSIFICATION_TYPE": "U", "NORAD_CAT_ID": 40001, "ELEMENT_SET_NO": 999, "REV_AT_EPOCH": 8936, "BSTAR": 0, "MEAN_MOTION_DOT": -4.9e-07, "MEAN_MOTION_DDOT": 0}, "tle": {"line1": "1 40001U 14032A   25341.11400970 -.00000049  00000+0  00000+0 0  9994", "line2": "2 40001  65.3466 320.2241 0008162 219.2555 140.6795  2.13105901 89367"}}, "geometry": {"type": "Point", "coordinates": [123.9420583889101, 31.329909531372465]}}, {"type": "Feature", "properties": {"norad_id": 40105, "name": "GPS BIIF-7  (PRN 09)", "group": "gnss", "lat": 51.89719021608282, "lon": -146.17350421326339, "alt_km": 20090.466263033864, "timestamp": "2025-12-08T05:48:09.277962+00:00", "meta": {"OBJECT_NAME": "GPS BIIF-7  (PRN 09)", "OBJECT_ID": "2014-045A", "EPOCH": "2025-12-07T14:17:59.496864", "MEAN_MOTION": 2.00572139, "ECCENTRICITY": 0.00328259, "INCLINATION": 55.2261, "RA_OF_ASC_NODE": 96.1042, "ARG_OF_PERICENTER": 119.7348, "MEAN_ANOMALY": 240.5718, "EPHEMERIS_TYPE": 0, "CLASSIFICATION_TYPE": "U", "NORAD_CAT_ID": 40105, "ELEMENT_SET_NO": 999, "REV_AT_EPOCH": 8223, "BSTAR": 0, "MEAN_MOTION_DOT": -4e-08, "MEAN_MOTION_DDOT": 0}, "tle": {"line1": "1 40105U 14045A   25341.59582751 -.00000004  00000+0  00000+0 0  9994", "line2": "2 40105  55.2261  96.1042 0032825 119.7348 240.5718  2.00572139 82239"}}, "geometry": {"type": "Point", "coordinates": [-146.17350421326339, 51.89719021608282]}}, {"type": "Feature", "properties": {"norad_id": 40128, "name": "GSAT0201 (GALILEO 5)", "group": "gnss", "lat": 48.81619030972738, "lon": 19.365282420068105, "alt_km": 19836.94607604234, "timestamp": "2025-12-08T05:48:09.277973+00:00", "meta": {"OBJECT_NAME": "GSAT0201 (GALILEO 5)", "OBJECT_ID": "2014-050A", "EPOCH": "2025-12-07T12:54:32.900256", "MEAN_MOTION": 1.85519488, "ECCENTRICITY": 0.16474216, "INCLINATION": 49.0828, "RA_OF_ASC_NODE": 281.2757, "ARG_OF_PERICENTER": 172.085, "MEAN_ANOMALY": 190.9173, "EPHEMERIS_TYPE": 0, "CLASSIFICATION_TYPE": "U", "NORAD_CAT_ID": 40128, "ELEMENT_SET_NO": 999, "REV_AT_EPOCH": 7476, "BSTAR": 0, "MEAN_MOTION_DOT": -5.9e-07, "MEAN_MOTION_DDOT": 0}, "tle": {"line1": "1 40128U 14050A   25341.53788079 -.00000059  00000+0  00000+0 0  9990", "line2": "2 40128  49.0828 281.2757 1647421 172.0850 190.9173  1.85519488 74761"}}, "geometry": {"type": "Point", "coordinates": [19.365282420068105, 48.81619030972738]}}, {"type": "Feature", "properties": {"norad_id": 40129, "name": "GSAT0202 (GALILEO 6)", "group": "gnss", "lat": -32.5677711644538, "lon": -113.25318518669785, "alt_km": 24898.31442706955, "timestamp": "2025-12-08T05:48:09.277985+00:00", "meta": {"OBJECT_NAME": "GSAT0202 (GALILEO 6)", "OBJECT_ID": "2014-050B", "EPOCH": "2025-12-06T04:15:08.981856", "MEAN_MOTION": 1.85520222, "ECCENTRICITY": 0.16479377, "INCLINATION": 49.1003, "RA_OF_ASC_NODE": 280.4147, "ARG_OF_PERICENTER": 172.7832, "MEAN_ANOMALY": 189.9608, "EPHEMERIS_TYPE": 0, "CLASSIFICATION_TYPE": "U", "NORAD_CAT_ID": 40129, "ELEMENT_SET_NO": 999, "REV_AT_EPOCH": 7690, "BSTAR": 0, "MEAN_MOTION_DOT": -5.4e-07, "MEAN_MOTION_DDOT": 0}, "tle": {"line1": "1 40129U 14050B   25340.17718729 -.00000054  00000+0  00000+0 0  9990", "line2": "2 40129  49.1003 280.4147 1647937 172.7832 189.9608  1.85520222 76908"}}, "geometry": {"type": "Point", "coordinates": [-113.25318518669785, -32.5677711644538]}}, {"type": "Feature", "properties": {"norad_id": 40269, "name": "IRNSS-1C", "group": "gnss", "lat": 2.5582951188591547, "lon": -112.56020817363797, "alt_km": 35853.3125261099, "timestamp": "2025-12-08T05:48:09.277996+00:00", "meta": {"OBJECT_NAME": "IRNSS-1C", "OBJECT_ID": "2014-061A", "EPOCH": "2025-12-07T20:52:39.397152", "MEAN_MOTION": 1.00268511, "ECCENTRICITY": 0.00177957, "INCLINATION": 6.0285, "RA_OF_ASC_NODE": 92.72, "ARG_OF_PERICENTER": 2.5205, "MEAN_ANOMALY": 17.7398, "EPHEMERIS_TYPE": 0, "CLASSIFICATION_TYPE": "U", "NORAD_CAT_ID": 40269, "ELEMENT_SET_NO": 999, "REV_AT_EPOCH": 4077, "BSTAR": 0, "MEAN_MOTION_DOT": -1.59e-06, "MEAN_MOTION_DDOT": 0}, "tle": {"line1": "1 40269U 14061A   25341.86990043 -.00000159  00000+0  00000+0 0  9991", "line2": "2 40269   6.0285  92.7200 0017795   2.5205  17.7398  1.00268511 40774"}}, "geometry": {"type": "Point", "coordinates": [-112.56020817363797, 2.5582951188591547]}}, {"type": "Feature", "properties": {"norad_id": 40294, "name": "GPS BIIF-8  (PRN 03)", "group": "gnss", "lat": -13.369773734962797, "lon": -132.73465705054898, "alt_km": 20280.22318270969, "timestamp": "2025-12-08T05:48:09.278010+00:00", "meta": {"OBJECT_NAME": "GPS BIIF-8  (PRN 03)", "OBJECT_ID": "2014-068A", "EPOCH": "2025-12-05T23:27:53.798400", "MEAN_MOTION": 2.00564264, "ECCENTRICITY": 0.00608121, "INCLINATION": 56.8528, "RA_OF_ASC_NODE": 38.4077, "ARG_OF_PERICENTER": 69.3337, "MEAN_ANOMALY": 291.3749, "EPHEMERIS_TYPE": 0, "CLASSIFICATION_TYPE": "U", "NORAD_CAT_ID": 40294, "ELEMENT_SET_NO": 999, "REV_AT_EPOCH": 8133, "BSTAR": 0, "MEAN_MOTION_DOT": -6.8e-07, "MEAN_MOTION_DDOT": 0}, "tle": {"line1": "1 40294U 14068A   25339.97770600 -.00000068  00000+0  00000+0 0  9999", "line2": "2 40294  56.8528  38.4077 0060812  69.3337 291.3749  2.00564264 81331"}}, "geometry": {"type": "Point", "coordinates": [-132.73465705054898, -13.369773734962797]}}]}